[{"OBJECT_NAME":"STARLINK-1351","OBJECT_ID":"2020-035AS","EPOCH":"2026-02-05T16:01:27.407712","MEAN_MOTION":15.43715124,"ECCENTRICITY":0.0001224,"INCLINATION":53.057,"RA_OF_ASC_NODE":175.2122,"ARG_OF_PERICENTER":19.145,"MEAN_ANOMALY":340.9601,"EPHEMERIS_TYPE":0,"CLASSIFICATION_TYPE":"U","NORAD_CAT_ID":45697,"ELEMENT_SET_NO":999,"REV_AT_EPOCH":31440,"BSTAR":0.00056849,"MEAN_MOTION_DOT":0.00025737,"MEAN_MOTION_DDOT":0},{"OBJECT_NAME":"STARLINK-1398","OBJECT_ID":"2020-035AU","EPOCH":"2026-02-06T08:00:01.999872","MEAN_MOTION":15.78271413,"ECCENTRICITY":0.00045436,"INCLINATION":53.0418,"RA_OF_ASC_NODE":97.9707,"ARG_OF_PERICENTER":339.6619,"MEAN_ANOMALY":77.3755,"EPHEMERIS_TYPE":0,"CLASSIFICATION_TYPE":"U","NORAD_CAT_ID":45699,"ELEMENT_SET_NO":999,"REV_AT_EPOCH":587,"BSTAR":0.00081190356,"MEAN_MOTION_DOT":0.00144182,"MEAN_MOTION_DDOT":0},{"OBJECT_NAME":"STARLINK-1400","OBJECT_ID":"2020-035AV","EPOCH":"2026-02-06T05:41:43.425024","MEAN_MOTION":15.44873932,"ECCENTRICITY":0.00029572,"INCLINATION":53.0541,"RA_OF_ASC_NODE":173.3225,"ARG_OF_PERICENTER":340.3721,"MEAN_ANOMALY":19.7171,"EPHEMERIS_TYPE":0,"CLASSIFICATION_TYPE":"U","NORAD_CAT_ID":45700,"ELEMENT_SET_NO":999,"REV_AT_EPOCH":31447,"BSTAR":0.0023908475,"MEAN_MOTION_DOT":0.0011534,"MEAN_MOTION_DDOT":0},{"OBJECT_NAME":"STARLINK-1403","OBJECT_ID":"2020-035AW","EPOCH":"2026-02-05T18:16:47.665920","MEAN_MOTION":15.0644122,"ECCENTRICITY":0.00011946,"INCLINATION":53.0563,"RA_OF_ASC_NODE":179.9499,"ARG_OF_PERICENTER":96.0519,"MEAN_ANOMALY":264.0606,"EPHEMERIS_TYPE":0,"CLASSIFICATION_TYPE":"U","NORAD_CAT_ID":45701,"ELEMENT_SET_NO":999,"REV_AT_EPOCH":31433,"BSTAR":-0.00063231733,"MEAN_MOTION_DOT":-9.698e-5,"MEAN_MOTION_DDOT":0},{"OBJECT_NAME":"STARLINK-1407","OBJECT_ID":"2020-035AY","EPOCH":"2026-02-05T14:24:09.115200","MEAN_MOTION":15.54478331,"ECCENTRICITY":0.0011364,"INCLINATION":53.0365,"RA_OF_ASC_NODE":111.378,"ARG_OF_PERICENTER":348.8608,"MEAN_ANOMALY":11.2148,"EPHEMERIS_TYPE":0,"CLASSIFICATION_TYPE":"U","NORAD_CAT_ID":45703,"ELEMENT_SET_NO":999,"REV_AT_EPOCH":31529,"BSTAR":0.0012324,"MEAN_MOTION_DOT":0.00083125,"MEAN_MOTION_DDOT":0},{"OBJECT_NAME":"STARLINK-1411","OBJECT_ID":"2020-035BB","EPOCH":"2026-02-05T16:52:38.888832","MEAN_MOTION":15.56325721,"ECCENTRICITY":0.0003304,"INCLINATION":53.0463,"RA_OF_ASC_NODE":137.0157,"ARG_OF_PERICENTER":0.7596,"MEAN_ANOMALY":359.3419,"EPHEMERIS_TYPE":0,"CLASSIFICATION_TYPE":"U","NORAD_CAT_ID":45706,"ELEMENT_SET_NO":999,"REV_AT_EPOCH":31493,"BSTAR":0.0014271,"MEAN_MOTION_DOT":0.00103146,"MEAN_MOTION_DDOT":0},{"OBJECT_NAME":"STARLINK-1423","OBJECT_ID":"2020-035BF","EPOCH":"2026-02-06T00:00:02.000160","MEAN_MOTION":15.46667265,"ECCENTRICITY":0.00020341,"INCLINATION":53.0533,"RA_OF_ASC_NODE":173.9827,"ARG_OF_PERICENTER":351.5177,"MEAN_ANOMALY":69.3418,"EPHEMERIS_TYPE":0,"CLASSIFICATION_TYPE":"U","NORAD_CAT_ID":45710,"ELEMENT_SET_NO":999,"REV_AT_EPOCH":579,"BSTAR":0.0018047277,"MEAN_MOTION_DOT":0.00092209,"MEAN_MOTION_DDOT":0},{"OBJECT_NAME":"STARLINK-1433","OBJECT_ID":"2020-035BG","EPOCH":"2026-02-06T05:59:47.274144","MEAN_MOTION":15.48820446,"ECCENTRICITY":0.00024725,"INCLINATION":53.0535,"RA_OF_ASC_NODE":172.3024,"ARG_OF_PERICENTER":350.1656,"MEAN_ANOMALY":9.9303,"EPHEMERIS_TYPE":0,"CLASSIFICATION_TYPE":"U","NORAD_CAT_ID":45711,"ELEMENT_SET_NO":999,"REV_AT_EPOCH":31448,"BSTAR":0.0022459076,"MEAN_MOTION_DOT":0.00124327,"MEAN_MOTION_DDOT":0},{"OBJECT_NAME":"STARLINK-1434","OBJECT_ID":"2020-035BH","EPOCH":"2026-02-05T15:40:41.923200","MEAN_MOTION":15.23382645,"ECCENTRICITY":9.97e-5,"INCLINATION":53.0508,"RA_OF_ASC_NODE":168.0459,"ARG_OF_PERICENTER":10.4557,"MEAN_ANOMALY":349.646,"EPHEMERIS_TYPE":0,"CLASSIFICATION_TYPE":"U","NORAD_CAT_ID":45712,"ELEMENT_SET_NO":999,"REV_AT_EPOCH":31450,"BSTAR":0.0041614,"MEAN_MOTION_DOT":0.00101309,"MEAN_MOTION_DDOT":0},{"OBJECT_NAME":"STARLINK-1465","OBJECT_ID":"2020-038B","EPOCH":"2026-02-05T08:23:03.899616","MEAN_MOTION":15.44419346,"ECCENTRICITY":0.00017639,"INCLINATION":53.0552,"RA_OF_ASC_NODE":17.7072,"ARG_OF_PERICENTER":119.2523,"MEAN_ANOMALY":240.8659,"EPHEMERIS_TYPE":0,"CLASSIFICATION_TYPE":"U","NORAD_CAT_ID":45731,"ELEMENT_SET_NO":999,"REV_AT_EPOCH":31137,"BSTAR":0.0033484468,"MEAN_MOTION_DOT":0.00160146,"MEAN_MOTION_DDOT":0},{"OBJECT_NAME":"STARLINK-1471","OBJECT_ID":"2020-038F","EPOCH":"2026-02-06T08:00:01.999872","MEAN_MOTION":15.46759029,"ECCENTRICITY":0.00038791,"INCLINATION":53.0469,"RA_OF_ASC_NODE":292.0329,"ARG_OF_PERICENTER":120.866,"MEAN_ANOMALY":245.4561,"EPHEMERIS_TYPE":0,"CLASSIFICATION_TYPE":"U","NORAD_CAT_ID":45735,"ELEMENT_SET_NO":999,"REV_AT_EPOCH":590,"BSTAR":0.0018797395,"MEAN_MOTION_DOT":0.00096433,"MEAN_MOTION_DDOT":0},{"OBJECT_NAME":"STARLINK-1474","OBJECT_ID":"2020-038J","EPOCH":"2026-02-06T08:00:01.999872","MEAN_MOTION":15.99517553,"ECCENTRICITY":0.00054239,"INCLINATION":53.0229,"RA_OF_ASC_NODE":223.7656,"ARG_OF_PERICENTER":251.3731,"MEAN_ANOMALY":209.2907,"EPHEMERIS_TYPE":0,"CLASSIFICATION_TYPE":"U","NORAD_CAT_ID":45738,"ELEMENT_SET_NO":999,"REV_AT_EPOCH":603,"BSTAR":0.00084002466,"MEAN_MOTION_DOT":0.00426824,"MEAN_MOTION_DDOT":8.8613378e-5},{"OBJECT_NAME":"STARLINK-1480","OBJECT_ID":"2020-038M","EPOCH":"2026-02-06T08:00:01.999872","MEAN_MOTION":15.43261784,"ECCENTRICITY":0.00109433,"INCLINATION":53.0548,"RA_OF_ASC_NODE":6.7368,"ARG_OF_PERICENTER":67.825,"MEAN_ANOMALY":81.2205,"EPHEMERIS_TYPE":0,"CLASSIFICATION_TYPE":"U","NORAD_CAT_ID":45741,"ELEMENT_SET_NO":999,"REV_AT_EPOCH":578,"BSTAR":0.0033026291,"MEAN_MOTION_DOT":0.00151982,"MEAN_MOTION_DDOT":0},{"OBJECT_NAME":"STARLINK-1500","OBJECT_ID":"2020-038Q","EPOCH":"2026-02-05T05:28:48.378144","MEAN_MOTION":15.32945774,"ECCENTRICITY":0.0004348,"INCLINATION":53.0393,"RA_OF_ASC_NODE":344.8018,"ARG_OF_PERICENTER":116.2826,"MEAN_ANOMALY":243.8622,"EPHEMERIS_TYPE":0,"CLASSIFICATION_TYPE":"U","NORAD_CAT_ID":45744,"ELEMENT_SET_NO":999,"REV_AT_EPOCH":31183,"BSTAR":0.0010685,"MEAN_MOTION_DOT":0.00034276,"MEAN_MOTION_DDOT":0},{"OBJECT_NAME":"STARLINK-1504","OBJECT_ID":"2020-038S","EPOCH":"2026-02-05T22:33:39.717792","MEAN_MOTION":15.50997167,"ECCENTRICITY":0.0004456,"INCLINATION":53.0234,"RA_OF_ASC_NODE":295.0959,"ARG_OF_PERICENTER":106.0299,"MEAN_ANOMALY":254.12,"EPHEMERIS_TYPE":0,"CLASSIFICATION_TYPE":"U","NORAD_CAT_ID":45746,"ELEMENT_SET_NO":999,"REV_AT_EPOCH":31258,"BSTAR":0.00071433,"MEAN_MOTION_DOT":0.0004196,"MEAN_MOTION_DDOT":0},{"OBJECT_NAME":"STARLINK-1506","OBJECT_ID":"2020-038T","EPOCH":"2026-02-06T06:45:26.327808","MEAN_MOTION":15.25311209,"ECCENTRICITY":0.00048525,"INCLINATION":53.0756,"RA_OF_ASC_NODE":347.5289,"ARG_OF_PERICENTER":130.6149,"MEAN_ANOMALY":229.5272,"EPHEMERIS_TYPE":0,"CLASSIFICATION_TYPE":"U","NORAD_CAT_ID":45747,"ELEMENT_SET_NO":999,"REV_AT_EPOCH":31189,"BSTAR":0.00051208922,"MEAN_MOTION_DOT":0.00012751,"MEAN_MOTION_DDOT":0}]
