STARLINK-1351           
1 45697U 20035AS  26036.66767833  .00025737  00000+0  56849-3 0  9992
2 45697  53.0570 175.2122 0001224  19.1450 340.9601 15.43715124314400
STARLINK-1398           
1 45699U 20035AU  26037.33335648  .00144182  00000+0  81190-3 0  9997
2 45699  53.0418  97.9707 0004543 339.6619  77.3755 15.78271413  5871
STARLINK-1400           
1 45700U 20035AV  26037.23730816  .00115340  00000+0  23908-2 0  9991
2 45700  53.0541 173.3225 0002957 340.3721  19.7171 15.44873932314473
STARLINK-1403           
1 45701U 20035AW  26036.76166280 -.00009698  00000+0 -63232-3 0  9992
2 45701  53.0563 179.9499 0001194  96.0519 264.0606 15.06441220314337
STARLINK-1407           
1 45703U 20035AY  26036.60010550  .00083125  00000+0  12324-2 0  9995
2 45703  53.0365 111.3780 0011364 348.8608  11.2148 15.54478331315294
STARLINK-1411           
1 45706U 20035BB  26036.70322788  .00103146  00000+0  14271-2 0  9997
2 45706  53.0463 137.0157 0003304   0.7596 359.3419 15.56325721314937
STARLINK-1423           
1 45710U 20035BF  26037.00002315  .00092209  00000+0  18047-2 0  9999
2 45710  53.0533 173.9827 0002034 351.5177  69.3418 15.46667265  5793
STARLINK-1433           
1 45711U 20035BG  26037.24985271  .00124327  00000+0  22459-2 0  9996
2 45711  53.0535 172.3024 0002472 350.1656   9.9303 15.48820446314487
STARLINK-1434           
1 45712U 20035BH  26036.65326300  .00101309  00000+0  41614-2 0  9992
2 45712  53.0508 168.0459 0000997  10.4557 349.6460 15.23382645314506
STARLINK-1465           
1 45731U 20038B   26036.34935069  .00160146  00000+0  33484-2 0  9990
2 45731  53.0552  17.7072 0001763 119.2523 240.8659 15.44419346311376
STARLINK-1471           
1 45735U 20038F   26037.33335648  .00096433  00000+0  18797-2 0  9998
2 45735  53.0469 292.0329 0003879 120.8660 245.4561 15.46759029  5909
STARLINK-1474           
1 45738U 20038J   26037.33335648  .00426824  88613-4  84002-3 0  9996
2 45738  53.0229 223.7656 0005423 251.3731 209.2907 15.99517553  6035
STARLINK-1480           
1 45741U 20038M   26037.33335648  .00151982  00000+0  33026-2 0  9998
2 45741  53.0548   6.7368 0010943  67.8250  81.2205 15.43261784  5782
STARLINK-1500           
1 45744U 20038Q   26036.22833771  .00034276  00000+0  10685-2 0  9990
2 45744  53.0393 344.8018 0004348 116.2826 243.8622 15.32945774311832
STARLINK-1504           
1 45746U 20038S   26036.94004303  .00041960  00000+0  71433-3 0  9999
2 45746  53.0234 295.0959 0004456 106.0299 254.1200 15.50997167312583
STARLINK-1506           
1 45747U 20038T   26037.28155472  .00012751  00000+0  51209-3 0  9997
2 45747  53.0756 347.5289 0004852 130.6149 229.5272 15.25311209311896
